[{"OBJECT_NAME":"PHISAT 2","OBJECT_ID":"2024-149C","EPOCH":"2026-03-09T18:55:12.732384","MEAN_MOTION":15.29548632,"ECCENTRICITY":0.00011753,"INCLINATION":97.3806,"RA_OF_ASC_NODE":148.6498,"ARG_OF_PERICENTER":168.623,"MEAN_ANOMALY":191.5037,"EPHEMERIS_TYPE":0,"CLASSIFICATION_TYPE":"U","NORAD_CAT_ID":60470,"ELEMENT_SET_NO":999,"REV_AT_EPOCH":8679,"BSTAR":0.00031420974,"MEAN_MOTION_DOT":8.925e-5,"MEAN_MOTION_DDOT":0},{"OBJECT_NAME":"STARLINK-33918","OBJECT_ID":"2025-091X","EPOCH":"2026-03-09T23:23:49.805664","MEAN_MOTION":15.27587917,"ECCENTRICITY":9.019e-5,"INCLINATION":43.0014,"RA_OF_ASC_NODE":51.1021,"ARG_OF_PERICENTER":261.6685,"MEAN_ANOMALY":98.4065,"EPHEMERIS_TYPE":0,"CLASSIFICATION_TYPE":"U","NORAD_CAT_ID":63796,"ELEMENT_SET_NO":999,"REV_AT_EPOCH":4899,"BSTAR":0.0012384687,"MEAN_MOTION_DOT":0.00033983,"MEAN_MOTION_DDOT":0}]
